{
  "type": "FeatureCollection",
  "features": [
    {
      "type": "Feature",
      "properties": {
        "norad_id": 40545,
        "name": "GSAT0204 (GALILEO 8)",
        "group": "gnss",
        "lat": 49.91049770667963,
        "lon": 115.79069806792845,
        "alt_km": 23232.01075709029,
        "timestamp": "2025-12-11T22:43:47.510083+00:00",
        "meta_object_name": "GSAT0204 (GALILEO 8)",
        "meta_object_id": "2015-017B",
        "meta_epoch": "2025-12-11T04:11:34.346112",
        "meta_mean_motion": 1.70475574,
        "meta_eccentricity": 0.0006249,
        "meta_inclination": 56.853,
        "meta_ra_of_asc_node": 346.7403,
        "meta_arg_of_pericenter": 262.765,
        "meta_mean_anomaly": 97.1808,
        "meta_ephemeris_type": 0,
        "meta_classification_type": "U",
        "meta_norad_cat_id": 40545,
        "meta_element_set_no": 999,
        "meta_rev_at_epoch": 2904,
        "meta_bstar": 0,
        "meta_mean_motion_dot": -8.8e-07,
        "meta_mean_motion_ddot": 0,
        "tle_line1": "1 40545U 15017B   25345.17470308 -.00000088  00000+0  00000+0 0  9996",
        "tle_line2": "2 40545  56.8530 346.7403 0006249 262.7650  97.1808  1.70475574 29041"
      },
      "geometry": {
        "type": "Point",
        "coordinates": [
          115.79069806792845,
          49.91049770667963
        ]
      }
    },
    {
      "type": "Feature",
      "properties": {
        "norad_id": 40549,
        "name": "BEIDOU-3S IGSO-1S (C31)",
        "group": "gnss",
        "lat": -28.179370353203133,
        "lon": 144.84062403487573,
        "alt_km": 35640.48756667192,
        "timestamp": "2025-12-11T22:43:47.510095+00:00",
        "meta_object_name": "BEIDOU-3S IGSO-1S (C31)",
        "meta_object_id": "2015-019A",
        "meta_epoch": "2025-12-10T20:23:38.560704",
        "meta_mean_motion": 1.00293179,
        "meta_eccentricity": 0.00370388,
        "meta_inclination": 49.5587,
        "meta_ra_of_asc_node": 297.7333,
        "meta_arg_of_pericenter": 195.596,
        "meta_mean_anomaly": 346.316,
        "meta_ephemeris_type": 0,
        "meta_classification_type": "U",
        "meta_norad_cat_id": 40549,
        "meta_element_set_no": 999,
        "meta_rev_at_epoch": 3918,
        "meta_bstar": 0,
        "meta_mean_motion_dot": -1.89e-06,
        "meta_mean_motion_ddot": 0,
        "tle_line1": "1 40549U 15019A   25344.84975186 -.00000189  00000+0  00000+0 0  9991",
        "tle_line2": "2 40549  49.5587 297.7333 0037038 195.5960 346.3160  1.00293179 39188"
      },
      "geometry": {
        "type": "Point",
        "coordinates": [
          144.84062403487573,
          -28.179370353203133
        ]
      }
    },
    {
      "type": "Feature",
      "properties": {
        "norad_id": 40730,
        "name": "GPS BIIF-10 (PRN 08)",
        "group": "gnss",
        "lat": 30.213185077977833,
        "lon": 69.90911110654707,
        "alt_km": 20299.394524254763,
        "timestamp": "2025-12-11T22:43:47.510106+00:00",
        "meta_object_name": "GPS BIIF-10 (PRN 08)",
        "meta_object_id": "2015-033A",
        "meta_epoch": "2025-12-10T18:08:59.885952",
        "meta_mean_motion": 2.00565667,
        "meta_eccentricity": 0.01108361,
        "meta_inclination": 54.1324,
        "meta_ra_of_asc_node": 274.8545,
        "meta_arg_of_pericenter": 26.7633,
        "meta_mean_anomaly": 333.8214,
        "meta_ephemeris_type": 0,
        "meta_classification_type": "U",
        "meta_norad_cat_id": 40730,
        "meta_element_set_no": 999,
        "meta_rev_at_epoch": 7621,
        "meta_bstar": 0,
        "meta_mean_motion_dot": -6.3e-07,
        "meta_mean_motion_ddot": 0,
        "tle_line1": "1 40730U 15033A   25344.75624868 -.00000063  00000+0  00000+0 0  9998",
        "tle_line2": "2 40730  54.1324 274.8545 0110836  26.7633 333.8214  2.00565667 76213"
      },
      "geometry": {
        "type": "Point",
        "coordinates": [
          69.90911110654707,
          30.213185077977833
        ]
      }
    },
    {
      "type": "Feature",
      "properties": {
        "norad_id": 40748,
        "name": "BEIDOU-3S M2S (C58)",
        "group": "gnss",
        "lat": 10.782698739744989,
        "lon": -43.874127685601536,
        "alt_km": 21536.464672923546,
        "timestamp": "2025-12-11T22:43:47.510117+00:00",
        "meta_object_name": "BEIDOU-3S M2S (C58)",
        "meta_object_id": "2015-037A",
        "meta_epoch": "2025-12-09T05:49:19.735392",
        "meta_mean_motion": 1.86228936,
        "meta_eccentricity": 0.00124384,
        "meta_inclination": 55.042,
        "meta_ra_of_asc_node": 308.5839,
        "meta_arg_of_pericenter": 267.3919,
        "meta_mean_anomaly": 92.4547,
        "meta_ephemeris_type": 0,
        "meta_classification_type": "U",
        "meta_norad_cat_id": 40748,
        "meta_element_set_no": 999,
        "meta_rev_at_epoch": 7058,
        "meta_bstar": 0,
        "meta_mean_motion_dot": -7.5e-07,
        "meta_mean_motion_ddot": 0,
        "tle_line1": "1 40748U 15037A   25343.24258953 -.00000075  00000+0  00000+0 0  9995",
        "tle_line2": "2 40748  55.0420 308.5839 0012438 267.3919  92.4547  1.86228936 70588"
      },
      "geometry": {
        "type": "Point",
        "coordinates": [
          -43.874127685601536,
          10.782698739744989
        ]
      }
    },
    {
      "type": "Feature",
      "properties": {
        "norad_id": 40749,
        "name": "BEIDOU-3S M1S (C57)",
        "group": "gnss",
        "lat": -30.913623068041847,
        "lon": 153.2175224461991,
        "alt_km": 21536.8723846733,
        "timestamp": "2025-12-11T22:43:47.510128+00:00",
        "meta_object_name": "BEIDOU-3S M1S (C57)",
        "meta_object_id": "2015-037B",
        "meta_epoch": "2025-12-08T22:28:18.289056",
        "meta_mean_motion": 1.86253835,
        "meta_eccentricity": 0.0003421,
        "meta_inclination": 55.0388,
        "meta_ra_of_asc_node": 308.5837,
        "meta_arg_of_pericenter": 357.7489,
        "meta_mean_anomaly": 2.238,
        "meta_ephemeris_type": 0,
        "meta_classification_type": "U",
        "meta_norad_cat_id": 40749,
        "meta_element_set_no": 999,
        "meta_rev_at_epoch": 7058,
        "meta_bstar": 0,
        "meta_mean_motion_dot": -7.4e-07,
        "meta_mean_motion_ddot": 0,
        "tle_line1": "1 40749U 15037B   25342.93632279 -.00000074  00000+0  00000+0 0  9997",
        "tle_line2": "2 40749  55.0388 308.5837 0003421 357.7489   2.2380  1.86253835 70588"
      },
      "geometry": {
        "type": "Point",
        "coordinates": [
          153.2175224461991,
          -30.913623068041847
        ]
      }
    },
    {
      "type": "Feature",
      "properties": {
        "norad_id": 40889,
        "name": "GSAT0205 (GALILEO 9)",
        "group": "gnss",
        "lat": -52.69015633590278,
        "lon": 113.48940195073041,
        "alt_km": 23241.941264360226,
        "timestamp": "2025-12-11T22:43:47.510143+00:00",
        "meta_object_name": "GSAT0205 (GALILEO 9)",
        "meta_object_id": "2015-045A",
        "meta_epoch": "2025-12-10T08:33:32.148576",
        "meta_mean_motion": 1.7047308,
        "meta_eccentricity": 0.0005904,
        "meta_inclination": 55.0041,
        "meta_ra_of_asc_node": 226.8241,
        "meta_arg_of_pericenter": 38.7722,
        "meta_mean_anomaly": 321.3515,
        "meta_ephemeris_type": 0,
        "meta_classification_type": "U",
        "meta_norad_cat_id": 40889,
        "meta_element_set_no": 999,
        "meta_rev_at_epoch": 6379,
        "meta_bstar": 0,
        "meta_mean_motion_dot": 9e-08,
        "meta_mean_motion_ddot": 0,
        "tle_line1": "1 40889U 15045A   25344.35662209  .00000009  00000+0  00000+0 0  9992",
        "tle_line2": "2 40889  55.0041 226.8241 0005904  38.7722 321.3515  1.70473080 63793"
      },
      "geometry": {
        "type": "Point",
        "coordinates": [
          113.48940195073041,
          -52.69015633590278
        ]
      }
    },
    {
      "type": "Feature",
      "properties": {
        "norad_id": 40890,
        "name": "GSAT0206 (GALILEO 10)",
        "group": "gnss",
        "lat": 44.732117198959216,
        "lon": 2.880041129827171,
        "alt_km": 23215.701143439364,
        "timestamp": "2025-12-11T22:43:47.510154+00:00",
        "meta_object_name": "GSAT0206 (GALILEO 10)",
        "meta_object_id": "2015-045B",
        "meta_epoch": "2025-12-11T03:55:56.933760",
        "meta_mean_motion": 1.70473071,
        "meta_eccentricity": 0.00038554,
        "meta_inclination": 55.0029,
        "meta_ra_of_asc_node": 226.7968,
        "meta_arg_of_pericenter": 36.8797,
        "meta_mean_anomaly": 323.2259,
        "meta_ephemeris_type": 0,
        "meta_classification_type": "U",
        "meta_norad_cat_id": 40890,
        "meta_element_set_no": 999,
        "meta_rev_at_epoch": 6383,
        "meta_bstar": 0,
        "meta_mean_motion_dot": 9e-08,
        "meta_mean_motion_ddot": 0,
        "tle_line1": "1 40890U 15045B   25345.16385340  .00000009  00000+0  00000+0 0  9992",
        "tle_line2": "2 40890  55.0029 226.7968 0003855  36.8797 323.2259  1.70473071 63831"
      },
      "geometry": {
        "type": "Point",
        "coordinates": [
          2.880041129827171,
          44.732117198959216
        ]
      }
    }
  ]
}